{
    "links": {
        "self": "http://www.neowsapp.com/rest/v1/neo/3823895?api_key=iIulBulltgU6a56xZRHN4H3l9WmuAYTsLGpBGhQ2"
    },
    "id": "3823895",
    "neo_reference_id": "3823895",
    "name": "(2018 JY)",
    "designation": "2018 JY",
    "nasa_jpl_url": "http://ssd.jpl.nasa.gov/sbdb.cgi?sstr=3823895",
    "absolute_magnitude_h": 24.2,
    "estimated_diameter": {
        "kilometers": {
            "estimated_diameter_min": 0.0384197891,
            "estimated_diameter_max": 0.0859092601
        },
        "meters": {
            "estimated_diameter_min": 38.4197891064,
            "estimated_diameter_max": 85.9092601232
        },
        "miles": {
            "estimated_diameter_min": 0.0238729428,
            "estimated_diameter_max": 0.0533815229
        },
        "feet": {
            "estimated_diameter_min": 126.0491808919,
            "estimated_diameter_max": 281.8545369825
        }
    },
    "is_potentially_hazardous_asteroid": false,
    "close_approach_data": [
        {
            "close_approach_date": "2015-04-17",
            "close_approach_date_full": "2015-Apr-17 10:48",
            "epoch_date_close_approach": 1429267680000,
            "relative_velocity": {
                "kilometers_per_second": "20.2704181928",
                "kilometers_per_hour": "72973.5054941473",
                "miles_per_hour": "45342.8984555162"
            },
            "miss_distance": {
                "astronomical": "0.3573694844",
                "lunar": "139.0167294316",
                "kilometers": "53461713.669238228",
                "miles": "33219568.4622064264"
            },
            "orbiting_body": "Earth"
        },
        {
            "close_approach_date": "2018-05-14",
            "close_approach_date_full": "2018-May-14 16:07",
            "epoch_date_close_approach": 1526314020000,
            "relative_velocity": {
                "kilometers_per_second": "10.5807522419",
                "kilometers_per_hour": "38090.7080708501",
                "miles_per_hour": "23668.0846899124"
            },
            "miss_distance": {
                "astronomical": "0.0225718823",
                "lunar": "8.7804622147",
                "kilometers": "3376705.513970701",
                "miles": "2098187.5121336338"
            },
            "orbiting_body": "Earth"
        }
    ],
    "orbital_data": {
        "orbit_id": "8",
        "orbit_determination_date": "2019-12-24 05:11:20",
        "first_observation_date": "2018-05-07",
        "last_observation_date": "2018-05-24",
        "data_arc_in_days": 17,
        "observations_used": 47,
        "orbit_uncertainty": "7",
        "minimum_orbit_intersection": ".0115593",
        "jupiter_tisserand_invariant": "3.541",
        "epoch_osculation": "2459000.5",
        "eccentricity": ".536992457755907",
        "semi_major_axis": "2.100307066393535",
        "inclination": "6.991997655206731",
        "ascending_node_longitude": "232.3982959552947",
        "orbital_period": "1111.789625530689",
        "perihelion_distance": ".9724580127687715",
        "perihelion_argument": "33.78139945397661",
        "aphelion_distance": "3.228156120018298",
        "perihelion_time": "2459390.819025681883",
        "mean_anomaly": "233.6138150431057",
        "mean_motion": ".3238022659441185",
        "equinox": "J2000",
        "orbit_class": {
            "orbit_class_type": "APO",
            "orbit_class_description": "Near-Earth asteroid orbits which cross the Earth’s orbit similar to that of 1862 Apollo",
            "orbit_class_range": "a (semi-major axis) > 1.0 AU; q (perihelion) < 1.017 AU"
        }
    },
    "is_sentry_object": false
}